IRIDIUM 171             
1 43929U 19002H   23274.84373650  .00000593  00000+0  20465-3 0  9999
2 43929  86.3987  47.2287 0002114  96.8095 263.3342 14.34218969247154
IRIDIUM 170             
1 43930U 19002J   23275.09907524  .00002245  00000+0  35207-3 0  9998
2 43930  86.6109  46.9802 0002223  90.1662 269.9810 14.72245472253736
IRIDIUM 167             
1 43931U 19002K   23274.83739814  .00000565  00000+0  19483-3 0  9996
2 43931  86.3979  47.0485 0002043  97.1529 262.9899 14.34216122247154
IRIDIUM 181             
1 56726U 23068S   23274.86322204  .00000267  00000+0  73084-4 0  9990
2 56726  86.8573  88.2193 0000912 101.0070 259.1234 14.43578793 19723
IRIDIUM 177             
1 56727U 23068T   23274.97298107  .00000988  00000+0  12645-3 0  9992
2 56727  86.1934  78.4168 0002443  96.9247 263.2252 14.80246883 20035
IRIDIUM 174             
1 56728U 23068U   23274.96754864  .00000986  00000+0  12617-3 0  9996
2 56728  86.1940  78.5020 0002384  86.8705 273.2788 14.80246669 20039
IRIDIUM 178             
1 56729U 23068V   23274.89433808  .00000959  00000+0  12277-3 0  9993
2 56729  86.5732  83.7173 0002610  89.8177 270.3343 14.80236107 20028
IRIDIUM 179             
1 56730U 23068W   23274.88895352  .00000946  00000+0  12108-3 0  9999
2 56730  86.6741  84.5897 0002592  93.1217 267.0301 14.80235967 20025
